NORAD_CAT_ID,OBJECT_NAME,OBJECT_TYPE,EPOCH,MEAN_MOTION,ECCENTRICITY,INCLINATION,RA_OF_ASC_NODE,ARG_OF_PERICENTER,MEAN_ANOMALY,BSTAR,MEAN_MOTION_DOT,MEAN_MOTION_DDOT,TLE_LINE0,TLE_LINE1,TLE_LINE2,SEMIMAJOR_AXIS,PERIOD,APOGEE,PERIGEE,DECAYED
53828.0,STARLINK-4760,PAYLOAD,2022-11-29 14:00:01,15.08838667,0.0001791,53.2148,273.5445,41.0566,234.9578,-0.00080184,-0.00013026,0.0,0 STARLINK-4760,1 53828U 22114L   22333.58335648 -.00013026  00000-0 -80184-3 0  9999,2 53828  53.2148 273.5445 0001791  41.0566 234.9578 15.08838667  1305,6917.884,95.438,540.988,538.51,0.0
53828.0,STARLINK-4760,PAYLOAD,2022-11-29 22:00:00,15.08839482,0.0001817,53.2148,272.0483,45.6055,241.9304,-0.0014828,-0.00023809,0.0,0 STARLINK-4760,1 53828U 22114L   22333.91667824 -.00023809  00000-0 -14828-2 0  9991,2 53828  53.2148 272.0483 0001817  45.6055 241.9304 15.08839482 11765,6917.882,95.438,541.004,538.49,0.0
53828.0,STARLINK-4760,PAYLOAD,2022-11-30 14:00:01,15.08829919,0.0001845,53.2149,269.0558,45.7498,265.0128,0.00063827,9.882e-05,0.0,0 STARLINK-4760,1 53828U 22114L   22334.58335648  .00009882  00000-0  63827-3 0  9998,2 53828  53.2149 269.0558 0001845  45.7498 265.0128 15.08829919 11875,6917.911,95.438,541.053,538.5,0.0
53828.0,STARLINK-4760,PAYLOAD,2022-11-30 22:00:00,15.08856222,0.0001754,53.2159,267.5609,47.5405,274.7406,-0.00024978,-4.263e-05,0.0,0 STARLINK-4760,1 53828U 22114L   22334.91667824 -.00004263  00000-0 -24978-3 0  9993,2 53828  53.2159 267.5609 0001754  47.5405 274.7406 15.08856222  1303,6917.831,95.437,540.909,538.482,0.0
53828.0,STARLINK-4760,PAYLOAD,2022-12-01 14:00:01,15.08831777,0.0001812,53.215,264.5657,46.1125,299.3902,0.0014866,0.00023445,0.0,0 STARLINK-4760,1 53828U 22114L   22335.58334491  .00023445  00000-0  14866-2 0  9993,2 53828  53.2150 264.5657 0001812  46.1125 299.3902 15.08831777  1305,6917.906,95.438,541.024,538.5169999999998,0.0
53828.0,STARLINK-4760,PAYLOAD,2022-12-01 22:00:00,15.08878512,0.0001837,53.2159,263.0696,46.542,310.5422,-0.0034495,-0.00054828,0.0,0 STARLINK-4760,1 53828U 22114L   22335.91667824 -.00054828  00000-0 -34495-2 0  9990,2 53828  53.2159 263.0696 0001837  46.5420 310.5422 15.08878512 12077,6917.763000000001,95.435,540.898,538.357,0.0
53828.0,STARLINK-4760,PAYLOAD,2022-12-02 14:00:01,15.08835562,0.0001832,53.2155,260.0762,45.0937,335.1924,0.00030494,4.568e-05,0.0,0 STARLINK-4760,1 53828U 22114L   22336.58334491  .00004568  00000-0  30494-3 0  9995,2 53828  53.2155 260.0762 0001832  45.0937 335.1924 15.08835562  1308,6917.894,95.438,541.026,538.492,0.0
53828.0,STARLINK-4760,PAYLOAD,2022-12-02 16:00:00,15.08835349,0.0001838,53.2154,259.7018,46.4862,66.6993,0.00013738,1.899e-05,0.0,0 STARLINK-4760,1 53828U 22114L   22336.66667824  .00001899  00000-0  13738-3 0  9999,2 53828  53.2154 259.7018 0001838  46.4862  66.6993 15.08835349 12187,6917.895,95.438,541.031,538.488,0.0
53828.0,STARLINK-4760,PAYLOAD,2022-12-02 22:00:00,15.08844699,0.0001989,53.2157,258.5803,48.5957,343.2806,-0.0024563,-0.00039174,0.0,0 STARLINK-4760,1 53828U 22114L   22336.91667824 -.00039174  00000-0 -24563-2 0  9993,2 53828  53.2157 258.5803 0001989  48.5957 343.2806 15.08844699  1301,6917.866,95.437,541.107,538.355,0.0
53828.0,STARLINK-4760,PAYLOAD,2022-12-03 14:00:01,15.08819794,0.0002015,53.2157,255.5868,49.0581,5.9897,0.002407,0.00038207,0.0,0 STARLINK-4760,1 53828U 22114L   22337.58334491  .00038207  00000-0  24070-2 0  9995,2 53828  53.2157 255.5868 0002015  49.0581   5.9897 15.08819794  1309,6917.941999999999,95.439,541.201,538.413,0.0
53828.0,STARLINK-4760,PAYLOAD,2022-12-03 22:00:00,15.08873016,0.0002117,53.2159,254.0911,49.4229,17.2044,-0.0029762,-0.00047387,0.0,0 STARLINK-4760,1 53828U 22114L   22337.91667824 -.00047387  00000-0 -29762-2 0  9995,2 53828  53.2159 254.0911 0002117  49.4229  17.2044 15.08873016  1307,6917.779,95.435,541.109,538.18,0.0
53828.0,STARLINK-4760,PAYLOAD,2022-12-04 14:00:01,15.08834001,0.0002011,53.2163,251.0975,47.5628,42.2797,0.00080108,0.00012482,0.0,0 STARLINK-4760,1 53828U 22114L   22338.58334491  .00012482  00000-0  80108-3 0  9998,2 53828  53.2163 251.0975 0002011  47.5628  42.2797 15.08834001  1308,6917.899,95.438,541.155,538.373,0.0
53828.0,STARLINK-4760,PAYLOAD,2022-12-04 22:00:00,15.0884761,0.0002086,53.2164,249.6018,47.7036,53.7351,-0.0011967,-0.00019288,0.0,0 STARLINK-4760,1 53828U 22114L   22338.91667824 -.00019288  00000-0 -11967-2 0  9993,2 53828  53.2164 249.6018 0002086  47.7036  53.7351 15.08847610  1300,6917.857,95.437,541.165,538.279,0.0
53828.0,STARLINK-4760,PAYLOAD,2022-12-05 14:00:01,15.08822779,0.0001955,53.2167,246.6082,46.273,78.4464,0.0019301,0.00030549,0.0,0 STARLINK-4760,1 53828U 22114L   22339.58335648  .00030549  00000-0  19301-2 0  9994,2 53828  53.2167 246.6082 0001955  46.2730  78.4464 15.08822779  1308,6917.933000000001,95.439,541.15,538.446,0.0
53828.0,STARLINK-4760,PAYLOAD,2022-12-05 16:00:00,15.08817119,0.000196,53.2167,246.2339,47.4777,170.0778,0.0031383,0.00049982,0.0,0 STARLINK-4760,1 53828U 22114L   22339.66667824  .00049982  00000-0  31383-2 0  9992,2 53828  53.2167 246.2339 0001960  47.4777 170.0778 15.08817119 12636,6917.95,95.439,541.1709999999998,538.4590000000002,0.0
53828.0,STARLINK-4760,PAYLOAD,2022-12-05 18:13:10,15.08847302,0.0002191,53.2174,245.8217,46.7671,313.3504,4.238100000000001e-05,3.86e-06,0.0,0 STARLINK-4760,1 53828U 22114L   22339.75914762  .00000386  00000-0  42381-4 0  9995,2 53828  53.2174 245.8217 0002191  46.7671 313.3504 15.08847302 13194,6917.858,95.437,541.239,538.207,0.0
53828.0,STARLINK-4760,PAYLOAD,2022-12-06 03:45:29,15.08846261,0.0002091,53.2171,244.0357,48.3929,311.7242,1.8606e-05,8e-08,0.0,0 STARLINK-4760,1 53828U 22114L   22340.15658777  .00000008  00000-0  18606-4 0  9996,2 53828  53.2171 244.0357 0002091  48.3929 311.7242 15.08846261 12711,6917.861,95.437,541.173,538.28,0.0
53828.0,STARLINK-4760,PAYLOAD,2022-12-07 02:00:54,15.08830119,0.0002116,53.2169,239.8724,47.3764,312.7406,-0.00013614,-2.454e-05,0.0,0 STARLINK-4760,1 53828U 22114L   22341.08396479 -.00002454  00000-0 -13614-3 0  9999,2 53828  53.2169 239.8724 0002116  47.3764 312.7406 15.08830119 12855,6917.911,95.438,541.239,538.312,0.0
53828.0,STARLINK-4760,PAYLOAD,2022-12-07 17:54:46,15.08827682,0.000182,53.2167,236.8974,47.6613,312.4533,-6.401100000000001e-05,-1.306e-05,0.0,0 STARLINK-4760,1 53828U 22114L   22341.74636659 -.00001306  00000-0 -64011-4 0  9992,2 53828  53.2167 236.8974 0001820  47.6613 312.4533 15.08827682 13494,6917.918000000002,95.438,541.0419999999998,538.524,0.0
53828.0,STARLINK-4760,PAYLOAD,2022-12-08 03:27:04,15.08832415,0.0001939,53.2172,235.1149,47.8691,312.2466,-7.8571e-06,-4.13e-06,0.0,0 STARLINK-4760,1 53828U 22114L   22342.14380470 -.00000413  00000-0 -78571-5 0  9999,2 53828  53.2172 235.1149 0001939  47.8691 312.2466 15.08832415 13016,6917.904,95.438,541.11,538.427,0.0
53828.0,STARLINK-4760,PAYLOAD,2022-12-09 01:42:28,15.08835528,0.0001891,53.2179,230.9523,58.8786,301.2392,8.499700000000001e-05,1.065e-05,0.0,0 STARLINK-4760,1 53828U 22114L   22343.07116376  .00001065  00000-0  84997-4 0  9994,2 53828  53.2179 230.9523 0001891  58.8786 301.2392 15.08835528 13155,6917.894,95.438,541.067,538.451,0.0
53828.0,STARLINK-4760,PAYLOAD,2022-12-10 01:33:15,15.08836092,0.0001908,53.2169,226.4911,49.6558,310.46,0.0001186,1.6e-05,0.0,0 STARLINK-4760,1 53828U 22114L   22344.06476437  .00001600  00000-0  11860-3 0  9994,2 53828  53.2169 226.4911 0001908  49.6558 310.4600 15.08836092 13846,6917.892,95.438,541.077,538.437,0.0
53828.0,STARLINK-4760,PAYLOAD,2022-12-10 23:48:41,15.08829912,0.0001847,53.2171,222.3273,51.4387,308.677,-1.9339e-05,-5.96e-06,0.0,0 STARLINK-4760,1 53828U 22114L   22344.99214584 -.00000596  00000-0 -19339-4 0  9994,2 53828  53.2171 222.3273 0001847  51.4387 308.6770 15.08829912 13444,6917.911,95.438,541.054,538.498,0.0
53828.0,STARLINK-4760,PAYLOAD,2022-12-11 20:28:41,15.08841247,0.0001889,53.2178,218.466,46.6491,313.4658,3.1271e-05,2.1e-06,0.0,0 STARLINK-4760,1 53828U 22114L   22345.85326149  .00000210  00000-0  31271-4 0  9991,2 53828  53.2178 218.4660 0001889  46.6491 313.4658 15.08841247 13573,6917.877,95.437,541.048,538.435,0.0
53828.0,STARLINK-4760,PAYLOAD,2022-12-11 23:39:29,15.08691818,0.000268,53.2172,217.8683,85.1476,274.9822,0.0020536,0.00032414,0.0,0 STARLINK-4760,1 53828U 22114L   22345.98576001  .00032414  00000-0  20536-2 0  9990,2 53828  53.2172 217.8683 0002680  85.1476 274.9822 15.08691818 13599,6918.333000000001,95.447,542.052,538.344,0.0
53828.0,STARLINK-4760,PAYLOAD,2022-12-12 15:33:18,15.08849253,0.0001861,53.2167,214.895,57.5753,302.5419,0.00017242,2.458e-05,0.0,0 STARLINK-4760,1 53828U 22114L   22346.64813400  .00002458  00000-0  17242-3 0  9997,2 53828  53.2167 214.8950 0001861  57.5753 302.5419 15.08849253 13697,6917.852,95.437,541.005,538.43,0.0
53828.0,STARLINK-4760,PAYLOAD,2022-12-13 01:05:37,15.08845777,0.0002035,53.217,213.1102,54.8103,305.3079,0.00013286,1.827e-05,0.0,0 STARLINK-4760,1 53828U 22114L   22347.04557630  .00001827  00000-0  13286-3 0  9995,2 53828  53.2170 213.1102 0002035  54.8103 305.3079 15.08845777 13752,6917.863,95.437,541.136,538.32,0.0
53828.0,STARLINK-4760,PAYLOAD,2022-12-13 18:34:52,15.08849497,0.0001936,53.217,209.8373,57.4237,302.6941,-2.8157e-05,-7.36e-06,0.0,0 STARLINK-4760,1 53828U 22114L   22347.77421602 -.00000736  00000-0 -28157-4 0  9998,2 53828  53.2170 209.8373 0001936  57.4237 302.6941 15.08849497 14404,6917.851,95.437,541.056,538.377,0.0
53828.0,STARLINK-4760,PAYLOAD,2022-12-14 00:56:24,15.08850276,0.0001943,53.2169,208.6478,57.5954,302.5226,-2.1827e-05,-6.36e-06,0.0,0 STARLINK-4760,1 53828U 22114L   22348.03917328 -.00000636  00000-0 -21827-4 0  9999,2 53828  53.2169 208.6478 0001943  57.5954 302.5226 15.08850276 14446,6917.849,95.437,541.058,538.37,0.0
